start=new Date('2021-11-30T00:00:00.000Z').valueOf();
sats=[{"EPOCH":"2021-11-29T17:31:05.625408","ARG_OF_PERICENTER":"58.1672","MEAN_MOTION_DDOT":"0.0000000000000","COUNTRY_CODE":"US","RA_OF_ASC_NODE":"334.0320","SITE":"AFETR","PERIOD":"95.592","GP_ID":"190748950","ELEMENT_SET_NO":"999","SEMIMAJOR_AXIS":"6925.352","REV_AT_EPOCH":"9446","NORAD_CAT_ID":"45370","DECAY_DATE":null,"TLE_LINE2":"2 45370  53.0546 334.0320 0001419  58.1672 301.9455 15.06398792 94463","MEAN_MOTION":"15.06398792","RCS_SIZE":"LARGE","INCLINATION":"53.0546","EPHEMERIS_TYPE":"0","MEAN_ELEMENT_THEORY":"SGP4","MEAN_ANOMALY":"301.9455","PERIAPSIS":"546.235","OBJECT_NAME":"STARLINK-1281","MEAN_MOTION_DOT":"-0.00000001","CLASSIFICATION_TYPE":"U","LAUNCH_DATE":"2020-03-18","BSTAR":"0.00001884400000","ECCENTRICITY":"0.00014190","OBJECT_TYPE":"PAYLOAD","REF_FRAME":"TEME","CENTER_NAME":"EARTH","OBJECT_ID":"2020-019L","TIME_SYSTEM":"UTC","FILE":"3227094","TLE_LINE1":"1 45370U 20019L   21333.72992622 -.00000001  00000-0  18844-4 0  9993","APOAPSIS":"548.200"},{"OBJECT_NAME":"STARLINK-1287","CLASSIFICATION_TYPE":"U","MEAN_MOTION_DOT":"0.00000043","ECCENTRICITY":"0.00017990","LAUNCH_DATE":"2020-03-18","BSTAR":"0.00002176400000","RCS_SIZE":"LARGE","EPHEMERIS_TYPE":"0","INCLINATION":"53.0540","MEAN_ANOMALY":"307.8939","MEAN_ELEMENT_THEORY":"SGP4","PERIAPSIS":"545.980","MEAN_MOTION":"15.06395855","FILE":"3226898","TLE_LINE1":"1 45371U 20019M   21333.42767968  .00000043  00000-0  21764-4 0  9994","APOAPSIS":"548.472","OBJECT_ID":"2020-019M","TIME_SYSTEM":"UTC","OBJECT_TYPE":"PAYLOAD","REF_FRAME":"TEME","CENTER_NAME":"EARTH","COUNTRY_CODE":"US","RA_OF_ASC_NODE":"335.3937","SITE":"AFETR","MEAN_MOTION_DDOT":"0.0000000000000","EPOCH":"2021-11-29T10:15:51.524352","ARG_OF_PERICENTER":"52.2212","DECAY_DATE":null,"TLE_LINE2":"2 45371  53.0540 335.3937 0001799  52.2212 307.8939 15.06395855 94416","SEMIMAJOR_AXIS":"6925.361","REV_AT_EPOCH":"9441","NORAD_CAT_ID":"45371","PERIOD":"95.592","GP_ID":"190720128","ELEMENT_SET_NO":"999"},{"ELEMENT_SET_NO":"999","GP_ID":"190747970","PERIOD":"95.592","NORAD_CAT_ID":"45372","REV_AT_EPOCH":"9445","SEMIMAJOR_AXIS":"6925.356","TLE_LINE2":"2 45372  53.0555 334.1474 0001576  61.8758 298.2391 15.06397705 94455","DECAY_DATE":null,"ARG_OF_PERICENTER":"61.8758","EPOCH":"2021-11-29T16:59:14.929152","MEAN_MOTION_DDOT":"0.0000000000000","SITE":"AFETR","COUNTRY_CODE":"US","RA_OF_ASC_NODE":"334.1474","CENTER_NAME":"EARTH","REF_FRAME":"TEME","OBJECT_TYPE":"PAYLOAD","OBJECT_ID":"2020-019N","TIME_SYSTEM":"UTC","APOAPSIS":"548.312","TLE_LINE1":"1 45372U 20019N   21333.70781168  .00000618  00000-0  60361-4 0  9998","FILE":"3227094","MEAN_MOTION":"15.06397705","PERIAPSIS":"546.129","MEAN_ELEMENT_THEORY":"SGP4","MEAN_ANOMALY":"298.2391","RCS_SIZE":"LARGE","EPHEMERIS_TYPE":"0","INCLINATION":"53.0555","LAUNCH_DATE":"2020-03-18","ECCENTRICITY":"0.00015760","BSTAR":"0.00006036100000","CLASSIFICATION_TYPE":"U","MEAN_MOTION_DOT":"0.00000618","OBJECT_NAME":"STARLINK-1288"},{"OBJECT_ID":"2020-019P","TIME_SYSTEM":"UTC","REF_FRAME":"TEME","OBJECT_TYPE":"PAYLOAD","CENTER_NAME":"EARTH","FILE":"3226898","TLE_LINE1":"1 45373U 20019P   21333.42399564  .00000258  00000-0  36204-4 0  9992","APOAPSIS":"548.414","MEAN_ANOMALY":"309.9367","MEAN_ELEMENT_THEORY":"SGP4","INCLINATION":"53.0544","RCS_SIZE":"LARGE","EPHEMERIS_TYPE":"0","PERIAPSIS":"546.015","MEAN_MOTION":"15.06399570","OBJECT_NAME":"STARLINK-1295","ECCENTRICITY":"0.00017320","LAUNCH_DATE":"2020-03-18","BSTAR":"0.00003620400000","MEAN_MOTION_DOT":"0.00000258","CLASSIFICATION_TYPE":"U","SEMIMAJOR_AXIS":"6925.350","NORAD_CAT_ID":"45373","REV_AT_EPOCH":"9441","GP_ID":"190719127","ELEMENT_SET_NO":"999","PERIOD":"95.592","DECAY_DATE":null,"TLE_LINE2":"2 45373  53.0544 335.4171 0001732  50.1774 309.9367 15.06399570 94416","EPOCH":"2021-11-29T10:10:33.223296","ARG_OF_PERICENTER":"50.1774","RA_OF_ASC_NODE":"335.4171","COUNTRY_CODE":"US","SITE":"AFETR","MEAN_MOTION_DDOT":"0.0000000000000"},{"PERIOD":"95.592","GP_ID":"190748451","ELEMENT_SET_NO":"999","SEMIMAJOR_AXIS":"6925.337","REV_AT_EPOCH":"9447","NORAD_CAT_ID":"45374","DECAY_DATE":null,"TLE_LINE2":"2 45374  53.0550 333.6477 0001962  56.3730 303.7446 15.06403644 94472","EPOCH":"2021-11-29T19:38:28.273920","ARG_OF_PERICENTER":"56.3730","MEAN_MOTION_DDOT":"0.0000000000000","RA_OF_ASC_NODE":"333.6477","COUNTRY_CODE":"US","SITE":"AFETR","OBJECT_TYPE":"PAYLOAD","REF_FRAME":"TEME","CENTER_NAME":"EARTH","OBJECT_ID":"2020-019Q","TIME_SYSTEM":"UTC","FILE":"3227094","TLE_LINE1":"1 45374U 20019Q   21333.81838280  .00002204  00000-0  16681-3 0  9998","APOAPSIS":"548.561","MEAN_MOTION":"15.06403644","EPHEMERIS_TYPE":"0","RCS_SIZE":"LARGE","INCLINATION":"53.0550","MEAN_ANOMALY":"303.7446","MEAN_ELEMENT_THEORY":"SGP4","PERIAPSIS":"545.844","OBJECT_NAME":"STARLINK-1300","CLASSIFICATION_TYPE":"U","MEAN_MOTION_DOT":"0.00002204","LAUNCH_DATE":"2020-03-18","BSTAR":"0.00016681000000","ECCENTRICITY":"0.00019620"},{"TIME_SYSTEM":"UTC","OBJECT_ID":"2020-019R","REF_FRAME":"TEME","OBJECT_TYPE":"PAYLOAD","CENTER_NAME":"EARTH","FILE":"3227063","APOAPSIS":"548.244","TLE_LINE1":"1 45375U 20019R   21333.96582544  .00000929  00000-0  81238-4 0  9997","MEAN_ANOMALY":"303.3984","MEAN_ELEMENT_THEORY":"SGP4","RCS_SIZE":"LARGE","INCLINATION":"53.0562","EPHEMERIS_TYPE":"0","PERIAPSIS":"546.114","MEAN_MOTION":"15.06411205","OBJECT_NAME":"STARLINK-1302","ECCENTRICITY":"0.00015380","LAUNCH_DATE":"2020-03-18","BSTAR":"0.00008123800000","MEAN_MOTION_DOT":"0.00000929","CLASSIFICATION_TYPE":"U","SEMIMAJOR_AXIS":"6925.314","NORAD_CAT_ID":"45375","REV_AT_EPOCH":"9449","ELEMENT_SET_NO":"999","GP_ID":"190727623","PERIOD":"95.591","DECAY_DATE":null,"TLE_LINE2":"2 45375  53.0562 332.9904 0001538  56.7152 303.3984 15.06411205 94491","EPOCH":"2021-11-29T23:10:47.318016","ARG_OF_PERICENTER":"56.7152","RA_OF_ASC_NODE":"332.9904","COUNTRY_CODE":"US","SITE":"AFETR","MEAN_MOTION_DDOT":"0.0000000000000"},{"INCLINATION":"53.0557","RCS_SIZE":"LARGE","EPHEMERIS_TYPE":"0","MEAN_ELEMENT_THEORY":"SGP4","MEAN_ANOMALY":"295.6774","PERIAPSIS":"546.133","MEAN_MOTION":"15.06408133","OBJECT_NAME":"STARLINK-1304","CLASSIFICATION_TYPE":"U","MEAN_MOTION_DOT":"-0.00000426","ECCENTRICITY":"0.00015240","LAUNCH_DATE":"2020-03-18","BSTAR":"-0.00000971900000","OBJECT_ID":"2020-019S","TIME_SYSTEM":"UTC","OBJECT_TYPE":"PAYLOAD","REF_FRAME":"TEME","CENTER_NAME":"EARTH","FILE":"3227094","APOAPSIS":"548.244","TLE_LINE1":"1 45376U 20019S   21333.71886573 -.00000426  00000-0 -97190-5 0  9999","EPOCH":"2021-11-29T17:15:09.999072","ARG_OF_PERICENTER":"64.4372","COUNTRY_CODE":"US","RA_OF_ASC_NODE":"334.0963","SITE":"AFETR","MEAN_MOTION_DDOT":"0.0000000000000","SEMIMAJOR_AXIS":"6925.324","REV_AT_EPOCH":"9445","NORAD_CAT_ID":"45376","PERIOD":"95.592","GP_ID":"190747471","ELEMENT_SET_NO":"999","DECAY_DATE":null,"TLE_LINE2":"2 45376  53.0557 334.0963 0001524  64.4372 295.6774 15.06408133 94451"},{"MEAN_MOTION_DDOT":"0.0000000000000","RA_OF_ASC_NODE":"333.9761","COUNTRY_CODE":"US","SITE":"AFETR","EPOCH":"2021-11-29T17:52:19.400736","ARG_OF_PERICENTER":"51.8991","DECAY_DATE":null,"TLE_LINE2":"2 45377  53.0551 333.9761 0001675  51.8991 308.2149 15.06393281 94469","ELEMENT_SET_NO":"999","GP_ID":"190748223","PERIOD":"95.593","SEMIMAJOR_AXIS":"6925.369","NORAD_CAT_ID":"45377","REV_AT_EPOCH":"9446","OBJECT_NAME":"STARLINK-1305","LAUNCH_DATE":"2020-03-18","ECCENTRICITY":"0.00016750","BSTAR":"0.00000016980000","CLASSIFICATION_TYPE":"U","MEAN_MOTION_DOT":"-0.00000279","MEAN_MOTION":"15.06393281","MEAN_ELEMENT_THEORY":"SGP4","MEAN_ANOMALY":"308.2149","RCS_SIZE":"LARGE","EPHEMERIS_TYPE":"0","INCLINATION":"53.0551","PERIAPSIS":"546.074","FILE":"3227094","TLE_LINE1":"1 45377U 20019T   21333.74466899 -.00000279  00000-0  16980-6 0  9992","APOAPSIS":"548.394","REF_FRAME":"TEME","OBJECT_TYPE":"PAYLOAD","CENTER_NAME":"EARTH","OBJECT_ID":"2020-019T","TIME_SYSTEM":"UTC"},{"ARG_OF_PERICENTER":"57.0103","EPOCH":"2021-11-29T17:36:23.485824","MEAN_MOTION_DDOT":"0.0000000000000","SITE":"AFETR","RA_OF_ASC_NODE":"334.0324","COUNTRY_CODE":"US","ELEMENT_SET_NO":"999","GP_ID":"190748951","PERIOD":"95.592","NORAD_CAT_ID":"45378","REV_AT_EPOCH":"9446","SEMIMAJOR_AXIS":"6925.343","TLE_LINE2":"2 45378  53.0558 334.0324 0001638  57.0103 303.1044 15.06401920 94464","DECAY_DATE":null,"MEAN_MOTION":"15.06401920","PERIAPSIS":"546.073","MEAN_ELEMENT_THEORY":"SGP4","MEAN_ANOMALY":"303.1044","RCS_SIZE":"LARGE","EPHEMERIS_TYPE":"0","INCLINATION":"53.0558","ECCENTRICITY":"0.00016380","LAUNCH_DATE":"2020-03-18","BSTAR":"0.00010101000000","MEAN_MOTION_DOT":"0.00001223","CLASSIFICATION_TYPE":"U","OBJECT_NAME":"STARLINK-1310","CENTER_NAME":"EARTH","REF_FRAME":"TEME","OBJECT_TYPE":"PAYLOAD","OBJECT_ID":"2020-019U","TIME_SYSTEM":"UTC","APOAPSIS":"548.342","TLE_LINE1":"1 45378U 20019U   21333.73360516  .00001223  00000-0  10101-3 0  9996","FILE":"3227094"},{"MEAN_MOTION":"15.06397451","PERIAPSIS":"546.044","RCS_SIZE":"LARGE","INCLINATION":"53.0547","EPHEMERIS_TYPE":"0","MEAN_ELEMENT_THEORY":"SGP4","MEAN_ANOMALY":"300.5552","CLASSIFICATION_TYPE":"U","MEAN_MOTION_DOT":"0.00000260","LAUNCH_DATE":"2020-03-18","ECCENTRICITY":"0.00017000","BSTAR":"0.00003638500000","OBJECT_NAME":"STARLINK-1319","CENTER_NAME":"EARTH","OBJECT_TYPE":"PAYLOAD","REF_FRAME":"TEME","TIME_SYSTEM":"UTC","OBJECT_ID":"2020-019V","APOAPSIS":"548.399","TLE_LINE1":"1 45379U 20019V   21333.86999013  .00000260  00000-0  36385-4 0  9994","FILE":"3227094","ARG_OF_PERICENTER":"59.5605","EPOCH":"2021-11-29T20:52:47.147232","MEAN_MOTION_DDOT":"0.0000000000000","SITE":"AFETR","COUNTRY_CODE":"US","RA_OF_ASC_NODE":"333.4169","PERIOD":"95.592","GP_ID":"190747721","ELEMENT_SET_NO":"999","REV_AT_EPOCH":"9448","NORAD_CAT_ID":"45379","SEMIMAJOR_AXIS":"6925.356","TLE_LINE2":"2 45379  53.0547 333.4169 0001700  59.5605 300.5552 15.06397451 94487","DECAY_DATE":null}];
